{
  "type": "FeatureCollection",
  "features": [
    {
      "type": "Feature",
      "properties": {
        "norad_id": 60182,
        "name": "ALOS-4 (DAICHI-4)",
        "group": "resource",
        "lat": 52.23448743690049,
        "lon": 81.66381043967796,
        "alt_km": 625.3566361460735,
        "timestamp": "2025-12-23T07:45:09.054536+00:00",
        "meta_object_name": "ALOS-4 (DAICHI-4)",
        "meta_object_id": "2024-123A",
        "meta_epoch": "2025-12-20T19:27:23.065632",
        "meta_mean_motion": 14.79476706,
        "meta_eccentricity": 0.00013885,
        "meta_inclination": 97.9224,
        "meta_ra_of_asc_node": 89.5428,
        "meta_arg_of_pericenter": 101.3368,
        "meta_mean_anomaly": 258.8,
        "meta_ephemeris_type": 0,
        "meta_classification_type": "U",
        "meta_norad_cat_id": 60182,
        "meta_element_set_no": 999,
        "meta_rev_at_epoch": 7950,
        "meta_bstar": 0.00018386978,
        "meta_mean_motion_dot": 1.322e-05,
        "meta_mean_motion_ddot": 0,
        "tle_line1": "1 60182U 24123A   25354.81068363  .00001322  00000+0  18387-3 0  9990",
        "tle_line2": "2 60182  97.9224  89.5428 0001388 101.3368 258.8000 14.79476706 79505"
      },
      "geometry": {
        "type": "Point",
        "coordinates": [
          81.66381043967796,
          52.23448743690049
        ]
      }
    },
    {
      "type": "Feature",
      "properties": {
        "norad_id": 60452,
        "name": "LEGION 3",
        "group": "resource",
        "lat": 36.272341005980216,
        "lon": 26.14308291686755,
        "alt_km": 520.0912900233325,
        "timestamp": "2025-12-23T07:45:09.054546+00:00",
        "meta_object_name": "LEGION 3",
        "meta_object_id": "2024-146A",
        "meta_epoch": "2025-12-22T21:43:15.295296",
        "meta_mean_motion": 15.15859061,
        "meta_eccentricity": 0.00157176,
        "meta_inclination": 45.0008,
        "meta_ra_of_asc_node": 255.635,
        "meta_arg_of_pericenter": 252.9816,
        "meta_mean_anomaly": 106.934,
        "meta_ephemeris_type": 0,
        "meta_classification_type": "U",
        "meta_norad_cat_id": 60452,
        "meta_element_set_no": 999,
        "meta_rev_at_epoch": 7527,
        "meta_bstar": 0.00026629018,
        "meta_mean_motion_dot": 4.932e-05,
        "meta_mean_motion_ddot": 0,
        "tle_line1": "1 60452U 24146A   25356.90503814  .00004932  00000+0  26629-3 0  9990",
        "tle_line2": "2 60452  45.0008 255.6350 0015717 252.9816 106.9340 15.15859061 75271"
      },
      "geometry": {
        "type": "Point",
        "coordinates": [
          26.14308291686755,
          36.272341005980216
        ]
      }
    },
    {
      "type": "Feature",
      "properties": {
        "norad_id": 60453,
        "name": "LEGION 4",
        "group": "resource",
        "lat": 36.6376065968442,
        "lon": 117.17097622913273,
        "alt_km": 514.8270642536854,
        "timestamp": "2025-12-23T07:45:09.054557+00:00",
        "meta_object_name": "LEGION 4",
        "meta_object_id": "2024-146B",
        "meta_epoch": "2025-12-22T23:18:27.966528",
        "meta_mean_motion": 15.15926035,
        "meta_eccentricity": 0.00083892,
        "meta_inclination": 45.0392,
        "meta_ra_of_asc_node": 347.0607,
        "meta_arg_of_pericenter": 7.3235,
        "meta_mean_anomaly": 352.7765,
        "meta_ephemeris_type": 0,
        "meta_classification_type": "U",
        "meta_norad_cat_id": 60453,
        "meta_element_set_no": 999,
        "meta_rev_at_epoch": 7413,
        "meta_bstar": 0.00033140871,
        "meta_mean_motion_dot": 6.205e-05,
        "meta_mean_motion_ddot": 0,
        "tle_line1": "1 60453U 24146B   25356.97115702  .00006205  00000+0  33141-3 0  9995",
        "tle_line2": "2 60453  45.0392 347.0607 0008389   7.3235 352.7765 15.15926035 74135"
      },
      "geometry": {
        "type": "Point",
        "coordinates": [
          117.17097622913273,
          36.6376065968442
        ]
      }
    },
    {
      "type": "Feature",
      "properties": {
        "norad_id": 60989,
        "name": "SENTINEL-2C",
        "group": "resource",
        "lat": 52.72386528203657,
        "lon": -98.92439855190463,
        "alt_km": 783.3058034567603,
        "timestamp": "2025-12-23T07:45:09.054567+00:00",
        "meta_object_name": "SENTINEL-2C",
        "meta_object_id": "2024-157A",
        "meta_epoch": "2025-12-22T16:03:33.313248",
        "meta_mean_motion": 14.30821394,
        "meta_eccentricity": 0.00011973,
        "meta_inclination": 98.5671,
        "meta_ra_of_asc_node": 69.0082,
        "meta_arg_of_pericenter": 95.1447,
        "meta_mean_anomaly": 264.9872,
        "meta_ephemeris_type": 0,
        "meta_classification_type": "U",
        "meta_norad_cat_id": 60989,
        "meta_element_set_no": 999,
        "meta_rev_at_epoch": 6774,
        "meta_bstar": 7.0243627e-05,
        "meta_mean_motion_dot": 1.41e-06,
        "meta_mean_motion_ddot": 0,
        "tle_line1": "1 60989U 24157A   25356.66913557  .00000141  00000+0  70244-4 0  9990",
        "tle_line2": "2 60989  98.5671  69.0082 0001197  95.1447 264.9872 14.30821394 67740"
      },
      "geometry": {
        "type": "Point",
        "coordinates": [
          -98.92439855190463,
          52.72386528203657
        ]
      }
    },
    {
      "type": "Feature",
      "properties": {
        "norad_id": 61735,
        "name": "IONOSFERA-M 1",
        "group": "resource",
        "lat": 79.67917894454271,
        "lon": 169.4401616107283,
        "alt_km": 808.7120785032539,
        "timestamp": "2025-12-23T07:45:09.054577+00:00",
        "meta_object_name": "IONOSFERA-M 1",
        "meta_object_id": "2024-199A",
        "meta_epoch": "2025-12-22T22:55:03.143136",
        "meta_mean_motion": 14.22716224,
        "meta_eccentricity": 4.565e-05,
        "meta_inclination": 98.7404,
        "meta_ra_of_asc_node": 226.7244,
        "meta_arg_of_pericenter": 7.4981,
        "meta_mean_anomaly": 352.6203,
        "meta_ephemeris_type": 0,
        "meta_classification_type": "U",
        "meta_norad_cat_id": 61735,
        "meta_element_set_no": 999,
        "meta_rev_at_epoch": 10264,
        "meta_bstar": 4.8619131e-05,
        "meta_mean_motion_dot": 6.5e-07,
        "meta_mean_motion_ddot": 0,
        "tle_line1": "1 61735U 24199A   25356.95489749  .00000065  00000+0  48619-4 0  9995",
        "tle_line2": "2 61735  98.7404 226.7244 0000456   7.4981 352.6203 14.22716224102642"
      },
      "geometry": {
        "type": "Point",
        "coordinates": [
          169.4401616107283,
          79.67917894454271
        ]
      }
    },
    {
      "type": "Feature",
      "properties": {
        "norad_id": 61736,
        "name": "IONOSFERA-M 2",
        "group": "resource",
        "lat": -80.83878760358651,
        "lon": -25.521101591849153,
        "alt_km": 824.8077049874728,
        "timestamp": "2025-12-23T07:45:09.054587+00:00",
        "meta_object_name": "IONOSFERA-M 2",
        "meta_object_id": "2024-199B",
        "meta_epoch": "2025-12-22T22:03:39.028608",
        "meta_mean_motion": 14.22718382,
        "meta_eccentricity": 0.00018385,
        "meta_inclination": 98.7395,
        "meta_ra_of_asc_node": 226.6013,
        "meta_arg_of_pericenter": 97.5129,
        "meta_mean_anomaly": 262.6258,
        "meta_ephemeris_type": 0,
        "meta_classification_type": "U",
        "meta_norad_cat_id": 61736,
        "meta_element_set_no": 999,
        "meta_rev_at_epoch": 10576,
        "meta_bstar": 4.5495859e-05,
        "meta_mean_motion_dot": 5.8e-07,
        "meta_mean_motion_ddot": 0,
        "tle_line1": "1 61736U 24199B   25356.91920172  .00000058  00000+0  45496-4 0  9994",
        "tle_line2": "2 61736  98.7395 226.6013 0001838  97.5129 262.6258 14.22718382105767"
      },
      "geometry": {
        "type": "Point",
        "coordinates": [
          -25.521101591849153,
          -80.83878760358651
        ]
      }
    },
    {
      "type": "Feature",
      "properties": {
        "norad_id": 63772,
        "name": "BIOMASS",
        "group": "resource",
        "lat": 4.018101919118998,
        "lon": -178.39295206780847,
        "alt_km": 671.1976221844061,
        "timestamp": "2025-12-23T07:45:09.054597+00:00",
        "meta_object_name": "BIOMASS",
        "meta_object_id": "2025-090A",
        "meta_epoch": "2025-12-22T12:05:51.393984",
        "meta_mean_motion": 14.67537759,
        "meta_eccentricity": 0.00010953,
        "meta_inclination": 98.0697,
        "meta_ra_of_asc_node": 181.3714,
        "meta_arg_of_pericenter": 82.1383,
        "meta_mean_anomaly": 277.9946,
        "meta_ephemeris_type": 0,
        "meta_classification_type": "U",
        "meta_norad_cat_id": 63772,
        "meta_element_set_no": 999,
        "meta_rev_at_epoch": 3477,
        "meta_bstar": 0.00022198106,
        "meta_mean_motion_dot": 1.211e-05,
        "meta_mean_motion_ddot": 0,
        "tle_line1": "1 63772U 25090A   25356.50406706  .00001211  00000+0  22198-3 0  9999",
        "tle_line2": "2 63772  98.0697 181.3714 0001095  82.1383 277.9946 14.67537759 34770"
      },
      "geometry": {
        "type": "Point",
        "coordinates": [
          -178.39295206780847,
          4.018101919118998
        ]
      }
    }
  ]
}